[{"OBJECT_NAME":"STARLINK-5259","OBJECT_ID":"2022-141BE","EPOCH":"2026-03-09T21:28:05.817792","MEAN_MOTION":15.08827948,"ECCENTRICITY":0.0001888,"INCLINATION":53.2209,"RA_OF_ASC_NODE":342.8576,"ARG_OF_PERICENTER":121.5664,"MEAN_ANOMALY":238.5513,"EPHEMERIS_TYPE":0,"CLASSIFICATION_TYPE":"U","NORAD_CAT_ID":54209,"ELEMENT_SET_NO":999,"REV_AT_EPOCH":18617,"BSTAR":-6.0362453e-5,"MEAN_MOTION_DOT":-1.248e-5,"MEAN_MOTION_DDOT":0},{"OBJECT_NAME":"LEMUR-2-STELLA","OBJECT_ID":"2024-149BT","EPOCH":"2026-03-09T17:26:15.951264","MEAN_MOTION":15.09464064,"ECCENTRICITY":0.0001299,"INCLINATION":97.6764,"RA_OF_ASC_NODE":150.9122,"ARG_OF_PERICENTER":95.1117,"MEAN_ANOMALY":265.026,"EPHEMERIS_TYPE":0,"CLASSIFICATION_TYPE":"U","NORAD_CAT_ID":60533,"ELEMENT_SET_NO":999,"REV_AT_EPOCH":8548,"BSTAR":0.00085776432,"MEAN_MOTION_DOT":0.00013685,"MEAN_MOTION_DDOT":0}]
